NORAD_CAT_ID,OBJECT_NAME,OBJECT_TYPE,EPOCH,MEAN_MOTION,ECCENTRICITY,INCLINATION,RA_OF_ASC_NODE,ARG_OF_PERICENTER,MEAN_ANOMALY,BSTAR,MEAN_MOTION_DOT,MEAN_MOTION_DDOT,TLE_LINE0,TLE_LINE1,TLE_LINE2,SEMIMAJOR_AXIS,PERIOD,APOGEE,PERIGEE,DECAYED
52650.0,STARLINK-3891,PAYLOAD,2024-04-04 04:46:42,15.08843756,0.0001345,53.2155,171.8093,82.5977,277.5168,8.0501e-05,9.94e-06,0.0,0 STARLINK-3891,1 52650U 22052BE  24095.19909908  .00000994  00000-0  80501-4 0  9994,2 52650  53.2155 171.8093 0001345  82.5977 277.5168 15.08843756105291,6917.869,95.437,540.664,538.803,0.0
52650.0,STARLINK-3891,PAYLOAD,2024-04-04 12:43:37,15.08848076,0.000149,53.2161,170.3235,82.0615,278.0546,0.00011,1.463e-05,0.0,0 STARLINK-3891,1 52650U 22052BE  24095.53029685  .00001463  00000-0  11000-3 0  9996,2 52650  53.2161 170.3235 0001490  82.0615 278.0546 15.08848076104975,6917.856,95.437,540.751,538.69,0.0
52650.0,STARLINK-3891,PAYLOAD,2024-04-05 10:59:01,15.08849779,0.0001369,53.2152,166.1587,86.1203,273.9946,0.00026919,4e-05,0.0,0 STARLINK-3891,1 52650U 22052BE  24096.45765517  .00004000  00000-0  26919-3 0  9994,2 52650  53.2152 166.1587 0001369  86.1203 273.9946 15.08849779105487,6917.85,95.437,540.663,538.768,0.0
52650.0,STARLINK-3891,PAYLOAD,2024-04-05 14:09:47,15.08852629,0.0001383,53.2153,165.5638,86.1299,273.9852,0.00030256,4.532e-05,0.0,0 STARLINK-3891,1 52650U 22052BE  24096.59013347  .00004532  00000-0  30256-3 0  9995,2 52650  53.2153 165.5638 0001383  86.1299 273.9852 15.08852629105135,6917.842,95.437,540.664,538.75,0.0
52650.0,STARLINK-3891,PAYLOAD,2024-04-06 04:28:16,15.08844014,0.000162,53.2168,162.8884,88.1706,271.9472,8.531e-05,1.07e-05,0.0,0 STARLINK-3891,1 52650U 22052BE  24097.18629717  .00001070  00000-0  85310-4 0  9991,2 52650  53.2168 162.8884 0001620  88.1706 271.9472 15.08844014105598,6917.868,95.437,540.854,538.612,0.0
52650.0,STARLINK-3891,PAYLOAD,2024-04-06 10:49:48,15.08841646,0.0001264,53.2152,161.6982,86.5786,273.5351,6.4369e-05,7.37e-06,0.0,0 STARLINK-3891,1 52650U 22052BE  24097.45125743  .00000737  00000-0  64369-4 0  9991,2 52650  53.2152 161.6982 0001264  86.5786 273.5351 15.08841646105267,6917.875,95.437,540.615,538.866,0.0
52650.0,STARLINK-3891,PAYLOAD,2024-04-07 10:40:36,15.08837444,0.0001218,53.2156,157.2371,91.1358,268.9773,1.3779e-05,-6.9e-07,0.0,0 STARLINK-3891,1 52650U 22052BE  24098.44486223 -.00000069  00000-0  13779-4 0  9992,2 52650  53.2156 157.2371 0001218  91.1358 268.9773 15.08837444105414,6917.888,95.438,540.596,538.911,0.0
52650.0,STARLINK-3891,PAYLOAD,2024-04-07 20:12:54,15.08839077,0.0001232,53.2156,155.453,90.9607,269.1527,4.3891e-05,4.11e-06,0.0,0 STARLINK-3891,1 52650U 22052BE  24098.84230234  .00000411  00000-0  43891-4 0  9993,2 52650  53.2156 155.4530 0001232  90.9607 269.1527 15.08839077105471,6917.883,95.438,540.6,538.896,0.0
52650.0,STARLINK-3891,PAYLOAD,2024-04-08 10:31:22,15.08845474,0.0001153,53.2156,152.7773,89.8655,270.2469,0.00024271,3.578e-05,0.0,0 STARLINK-3891,1 52650U 22052BE  24099.43846034  .00003578  00000-0  24271-3 0  9997,2 52650  53.2156 152.7773 0001153  89.8655 270.2469 15.08845474105939,6917.864,95.437,540.526,538.931,0.0
52650.0,STARLINK-3891,PAYLOAD,2024-04-08 13:42:09,15.08847026,0.0001163,53.2156,152.1826,89.5713,270.5413,0.00025185,3.723e-05,0.0,0 STARLINK-3891,1 52650U 22052BE  24099.57093943  .00003723  00000-0  25185-3 0  9992,2 52650  53.2156 152.1826 0001163  89.5713 270.5413 15.08847026105583,6917.859,95.437,540.528,538.919,0.0
52650.0,STARLINK-3891,PAYLOAD,2024-04-08 20:03:41,15.08845757,0.0001131,53.2152,150.9927,87.3664,272.7458,0.00022481,3.292e-05,0.0,0 STARLINK-3891,1 52650U 22052BE  24099.83589957  .00003292  00000-0  22481-3 0  9993,2 52650  53.2152 150.9927 0001131  87.3664 272.7458 15.08845757105620,6917.863,95.437,540.51,538.945,0.0
52650.0,STARLINK-3891,PAYLOAD,2024-04-09 04:00:37,15.08836836,0.0001257,53.2162,149.5073,92.8612,267.2524,9.0939e-05,1.16e-05,0.0,0 STARLINK-3891,1 52650U 22052BE  24100.16710443  .00001160  00000-0  90939-4 0  9994,2 52650  53.2162 149.5073 0001257  92.8612 267.2524 15.08836836106048,6917.89,95.438,540.625,538.885,0.0
52650.0,STARLINK-3891,PAYLOAD,2024-04-09 10:22:10,15.08840752,0.0001305,53.2159,148.318,93.0063,267.1078,0.00012335,1.676e-05,0.0,0 STARLINK-3891,1 52650U 22052BE  24100.43206255  .00001676  00000-0  12335-3 0  9990,2 52650  53.2159 148.3180 0001305  93.0063 267.1078 15.08840752105715,6917.878,95.438,540.646,538.84,0.0
52650.0,STARLINK-3891,PAYLOAD,2024-04-09 19:54:29,15.08840881,0.0001384,53.2164,146.5331,91.2807,268.8344,6.2411e-05,7.06e-06,0.0,0 STARLINK-3891,1 52650U 22052BE  24100.82950252  .00000706  00000-0  62411-4 0  9990,2 52650  53.2164 146.5331 0001384  91.2807 268.8344 15.08840881105775,6917.878,95.437,540.7,538.785,0.0
52650.0,STARLINK-3891,PAYLOAD,2024-04-10 11:48:20,15.08842678,0.0001488,53.2166,143.5598,95.1228,264.9934,6.6313e-06,-1.82e-06,0.0,0 STARLINK-3891,1 52650U 22052BE  24101.49190077 -.00000182  00000-0  66313-5 0  9990,2 52650  53.2166 143.5598 0001488  95.1228 264.9934 15.08842678106245,6917.872,95.437,540.767,538.708,0.0
52650.0,STARLINK-3891,PAYLOAD,2024-04-10 19:45:16,15.08843903,0.0001392,53.2174,142.0729,87.3815,272.7336,2.8113e-05,1.6e-06,0.0,0 STARLINK-3891,1 52650U 22052BE  24101.82310296  .00000160  00000-0  28113-4 0  9994,2 52650  53.2174 142.0729 0001392  87.3815 272.7336 15.08843903105922,6917.868,95.437,540.696,538.77,0.0
52650.0,STARLINK-3891,PAYLOAD,2024-04-11 11:39:08,15.08824551,0.0001442,53.2174,139.0983,85.0966,275.019,-5.4629e-05,-1.157e-05,0.0,0 STARLINK-3891,1 52650U 22052BE  24102.48552021 -.00001157  00000-0 -54629-4 0  9991,2 52650  53.2174 139.0983 0001442  85.0966 275.0190 15.08824551106392,6917.928,95.439,540.79,538.795,0.0
52650.0,STARLINK-3891,PAYLOAD,2024-04-11 19:36:04,15.08828322,0.0001445,53.2175,137.6125,86.0378,274.0779,-2.6628e-05,-7.12e-06,0.0,0 STARLINK-3891,1 52650U 22052BE  24102.81671934 -.00000712  00000-0 -26628-4 0  9997,2 52650  53.2175 137.6125 0001445  86.0378 274.0779 15.08828322106073,6917.916,95.438,540.781,538.781,0.0
52650.0,STARLINK-3891,PAYLOAD,2024-04-12 09:54:32,15.08837944,0.0001334,53.2169,134.9364,84.3238,275.7906,2.0517e-05,3.9e-07,0.0,0 STARLINK-3891,1 52650U 22052BE  24103.41287467  .00000039  00000-0  20517-4 0  9999,2 52650  53.2169 134.9364 0001334  84.3238 275.7906 15.08837944106535,6917.887,95.438,540.675,538.829,0.0
52650.0,STARLINK-3891,PAYLOAD,2024-04-13 11:20:41,15.08848933,0.0001213,53.2162,130.1768,89.6048,270.5083,0.00029349,4.387e-05,0.0,0 STARLINK-3891,1 52650U 22052BE  24104.47270088  .00004387  00000-0  29349-3 0  9998,2 52650  53.2162 130.1768 0001213  89.6048 270.5083 15.08848933106693,6917.853,95.437,540.557,538.879,0.0
52650.0,STARLINK-3891,PAYLOAD,2024-04-14 01:39:10,15.08846513,0.0001645,53.2178,127.4975,89.8139,270.3042,0.00012973,1.778e-05,0.0,0 STARLINK-3891,1 52650U 22052BE  24105.06886679  .00001778  00000-0  12973-3 0  9999,2 52650  53.2178 127.4975 0001645  89.8139 270.3042 15.08846513106786,6917.86,95.437,540.863,538.587,0.0
52650.0,STARLINK-3891,PAYLOAD,2024-04-14 08:00:42,15.08843718,0.0001685,53.2169,126.3065,63.9415,296.1751,0.00012259,1.664e-05,0.0,0 STARLINK-3891,1 52650U 22052BE  24105.33382878  .00001664  00000-0  12259-3 0  9992,2 52650  53.2169 126.3065 0001685  63.9415 296.1751 15.08843718106459,6917.869,95.437,540.9,538.568,0.0
52650.0,STARLINK-3891,PAYLOAD,2024-04-15 04:40:43,15.08842891,0.000158,53.2173,122.4424,101.4292,258.6877,-2.9516e-05,-7.58e-06,0.0,0 STARLINK-3891,1 52650U 22052BE  24106.19494900 -.00000758  00000-0 -29516-4 0  9997,2 52650  53.2173 122.4424 0001580 101.4292 258.6877 15.08842891106953,6917.872,95.437,540.83,538.644,0.0
52650.0,STARLINK-3891,PAYLOAD,2024-04-15 07:51:29,15.08842695,0.0001574,53.2172,121.8477,101.2096,258.9073,-3.5452e-05,-8.52e-06,0.0,0 STARLINK-3891,1 52650U 22052BE  24106.32742858 -.00000852  00000-0 -35452-4 0  9991,2 52650  53.2172 121.8477 0001574 101.2096 258.9073 15.08842695106601,6917.872,95.437,540.826,538.648,0.0
52650.0,STARLINK-3891,PAYLOAD,2024-04-16 07:42:16,15.08843935,0.0001427,53.216,117.3913,92.074,268.0416,0.00010047,1.312e-05,0.0,0 STARLINK-3891,1 52650U 22052BE  24107.32102418  .00001312  00000-0  10047-3 0  9996,2 52650  53.2160 117.3913 0001427  92.0740 268.0416 15.08843935107122,6917.868,95.437,540.721,538.746,0.0
52650.0,STARLINK-3891,PAYLOAD,2024-04-16 17:14:35,15.08844539,0.0001418,53.216,115.607,91.6321,268.4833,0.00011194,1.494e-05,0.0,0 STARLINK-3891,1 52650U 22052BE  24107.71846341  .00001494  00000-0  11194-3 0  9994,2 52650  53.2160 115.6070 0001418  91.6321 268.4833 15.08844539106810,6917.867,95.437,540.712,538.751,0.0
52650.0,STARLINK-3891,PAYLOAD,2024-04-17 04:22:17,15.08837222,0.0001499,53.2166,113.5256,92.9342,267.1822,7.4563e-05,8.99e-06,0.0,0 STARLINK-3891,1 52650U 22052BE  24108.18215012  .00000899  00000-0  74563-4 0  9999,2 52650  53.2166 113.5256 0001499  92.9342 267.1822 15.08837222107259,6917.889,95.438,540.791,538.717,0.0
52650.0,STARLINK-3891,PAYLOAD,2024-04-17 07:33:03,15.08839403,0.0001514,53.2166,112.931,93.0181,267.0984,8.9148e-05,1.131e-05,0.0,0 STARLINK-3891,1 52650U 22052BE  24108.31462836  .00001131  00000-0  89148-4 0  9997,2 52650  53.2166 112.9310 0001514  93.0181 267.0984 15.08839403106906,6917.882,95.438,540.795,538.7,0.0
52650.0,STARLINK-3891,PAYLOAD,2024-04-18 04:13:05,15.08831981,0.0001713,53.2171,109.068,114.0592,246.0579,-4.6023e-05,-1.02e-05,0.0,0 STARLINK-3891,1 52650U 22052BE  24109.17576066 -.00001020  00000-0 -46023-4 0  9997,2 52650  53.2171 109.0680 0001713 114.0592 246.0579 15.08831981107406,6917.905,95.438,540.955,538.585,0.0
52650.0,STARLINK-3891,PAYLOAD,2024-04-18 13:45:24,15.08834863,0.0001446,53.2166,107.2775,119.5163,240.5973,3.1265e-06,-2.38e-06,0.0,0 STARLINK-3891,1 52650U 22052BE  24109.57319814 -.00000238  00000-0  31265-5 0  9999,2 52650  53.2166 107.2775 0001446 119.5163 240.5973 15.08834863107096,6917.896,95.438,540.761,538.761,0.0
